IRIDIUM 126             
1 42809U 17039G   24157.16045020  .00000147  00000+0  45543-4 0  9996
2 42809  86.3947 303.7300 0002071  88.8759 271.2674 14.34218056363604
IRIDIUM 124             
1 42810U 17039H   24156.93518724  .00000723  00000+0  20886-3 0  9990
2 42810  86.4510 240.5435 0002411 105.4289 254.7178 14.43276126368053
IRIDIUM 128             
1 42811U 17039J   24156.45349509  .00000147  00000+0  45493-4 0  9993
2 42811  86.3959 335.5562 0001984  94.4533 265.6889 14.34216579363522
IRIDIUM 121             
1 42812U 17039K   24156.83063443  .00000010  00000+0 -35826-5 0  9996
2 42812  86.3947 303.8910 0002104  95.1805 264.9631 14.34217922363429
IRIDIUM 133             
1 42955U 17061A   24156.76428674  .00000189  00000+0  60266-4 0  9993
2 42955  86.3962 335.5255 0002064  87.7326 272.4106 14.34216825348366
IRIDIUM 100             
1 42956U 17061B   24156.89747549  .00000308  00000+0  10303-3 0  9992
2 42956  86.3959 335.4057 0002037  87.0774 273.0655 14.34217166348389
IRIDIUM 122             
1 42957U 17061C   24156.79599067  .00000133  00000+0  40426-4 0  9998
2 42957  86.3960 335.4466 0002062  89.3615 270.7818 14.34216650348374
IRIDIUM 129             
1 42958U 17061D   24156.96090594  .00000120  00000+0  35791-4 0  9994
2 42958  86.3961 335.4368 0001934  87.6894 272.4523 14.34216616348413
